COMMENT,ORIGINATOR,NORAD_CAT_ID,OBJECT_NAME,OBJECT_TYPE,CLASSIFICATION_TYPE,INTLDES,EPOCH,EPOCH_MICROSECONDS,MEAN_MOTION,ECCENTRICITY,INCLINATION,RA_OF_ASC_NODE,ARG_OF_PERICENTER,MEAN_ANOMALY,EPHEMERIS_TYPE,ELEMENT_SET_NO,REV_AT_EPOCH,BSTAR,MEAN_MOTION_DOT,MEAN_MOTION_DDOT,FILE,TLE_LINE0,TLE_LINE1,TLE_LINE2,OBJECT_ID,OBJECT_NUMBER,SEMIMAJOR_AXIS,PERIOD,APOGEE,PERIGEE,DECAYED,date
GENERATED VIA SPACETRACK.ORG API,18 SPCS,48886,SPACEBEE-102,PAYLOAD,U,21059H,2023/3/13 8:20,858848,15.24523428,0.0007555,97.5806,207.2834,248.8811,111.1619,0,999,9474,0.0015158,0.00037399,0,3859425,0 SPACEBEE-102,1 48886U 21059H   23072.34776457  .00037399  00000-0  15158-2 0  9991,2 48886  97.5806 207.2834 0007555 248.8811 111.1619 15.24523428 94741,2021-059H,48886,6870.354,94.456,497.409,487.028,0,
GENERATED VIA SPACETRACK.ORG API,18 SPCS,48886,SPACEBEE-102,PAYLOAD,U,21059H,2023/3/13 22:31,792960,15.24567599,0.0007596,97.5801,207.8807,246.7078,113.336,0,999,9483,0.0014477,0.00035754,0,3859631,0 SPACEBEE-102,1 48886U 21059H   23072.93848140  .00035754  00000-0  14477-2 0  9991,2 48886  97.5801 207.8807 0007596 246.7078 113.3360 15.24567599 94833,2021-059H,48886,6870.221,94.453,497.305,486.868,0,
GENERATED VIA SPACETRACK.ORG API,18 SPCS,48886,SPACEBEE-102,PAYLOAD,U,21059H,2023/3/14 7:58,283168,15.24599103,0.0007603,97.5799,208.2789,246.0271,114.017,0,999,9489,0.0015922,0.00039387,0,3860373,0 SPACEBEE-102,1 48886U 21059H   23073.33228337  .00039387  00000-0  15922-2 0  9998,2 48886  97.5799 208.2789 0007603 246.0271 114.0170 15.24599103 94899,2021-059H,48886,6870.127,94.451,497.215,486.768,0,
GENERATED VIA SPACETRACK.ORG API,18 SPCS,48886,SPACEBEE-102,PAYLOAD,U,21059H,2023/3/14 22:09,533696,15.24654613,0.0007589,97.5798,208.8767,243.9544,116.0912,0,999,9498,0.0018361,0.00045544,0,3860896,0 SPACEBEE-102,1 48886U 21059H   23073.92296914  .00045544  00000-0  18361-2 0  9991,2 48886  97.5798 208.8767 0007589 243.9544 116.0912 15.24654613 94986,2021-059H,48886,6869.96,94.448,497.038,486.611,0,
GENERATED VIA SPACETRACK.ORG API,18 SPCS,48886,SPACEBEE-102,PAYLOAD,U,21059H,2023/3/15 7:36,1280,15.24691794,0.0007578,97.5797,209.2753,242.1624,117.8846,0,999,9504,0.0018611,0.00046221,0,3861350,0 SPACEBEE-102,1 48886U 21059H   23074.31674770  .00046221  00000-0  18611-2 0  9996,2 48886  97.5797 209.2753 0007578 242.1624 117.8846 15.24691794 95047,2021-059H,48886,6869.848,94.445,496.919,486.507,0,
GENERATED VIA SPACETRACK.ORG API,18 SPCS,48886,SPACEBEE-102,PAYLOAD,U,21059H,2023/3/15 21:46,41184,15.24748777,0.0007557,97.5803,209.8736,240.0596,119.9891,0,999,9513,0.001763,0.00043841,0,3861599,0 SPACEBEE-102,1 48886U 21059H   23074.90739631  .00043841  00000-0  17630-2 0  9994,2 48886  97.5803 209.8736 0007557 240.0596 119.9891 15.24748777 95131,2021-059H,48886,6869.677,94.442,496.733,486.35,0,
GENERATED VIA SPACETRACK.ORG API,18 SPCS,48886,SPACEBEE-102,PAYLOAD,U,21059H,2023/3/16 2:30,320256,15.24766727,0.0007557,97.5802,210.0725,239.1688,120.8806,0,999,9516,0.0017933,0.00044624,0,3861835,0 SPACEBEE-102,1 48886U 21059H   23075.10427454  .00044624  00000-0  17933-2 0  9990,2 48886  97.5802 210.0725 0007557 239.1688 120.8806 15.24766727 95168,2021-059H,48886,6869.623,94.441,496.679,486.297,0,
GENERATED VIA SPACETRACK.ORG API,18 SPCS,48886,SPACEBEE-102,PAYLOAD,U,21059H,2023/3/16 7:13,379872,15.24788644,0.0007522,97.5802,210.2721,238.3724,121.678,0,999,9519,0.0019326,0.0004815,0,3862295,0 SPACEBEE-102,1 48886U 21059H   23075.30115023  .00048150  00000-0  19326-2 0  9994,2 48886  97.5802 210.2721 0007522 238.3724 121.6780 15.24788644 95195,2021-059H,48886,6869.557,94.439,496.589,486.255,0,
GENERATED VIA SPACETRACK.ORG API,18 SPCS,48886,SPACEBEE-102,PAYLOAD,U,21059H,2023/3/16 21:24,597088,15.24827695,0.0007522,97.5805,210.8702,236.0644,123.9878,0,999,9528,0.0013536,0.00033676,0,3862592,0 SPACEBEE-102,1 48886U 21059H   23075.89176617  .00033676  00000-0  13536-2 0  9998,2 48886  97.5805 210.8702 0007522 236.0644 123.9878 15.24827695 95282,2021-059H,48886,6869.44,94.437,496.472,486.138,0,
GENERATED VIA SPACETRACK.ORG API,18 SPCS,48886,SPACEBEE-102,PAYLOAD,U,21059H,2023/3/17 3:42,778880,15.24845032,0.0007572,97.5803,211.136,235.4044,124.648,0,999,9532,0.0013176,0.00032792,0,3862839,0 SPACEBEE-102,1 48886U 21059H   23076.15425670  .00032792  00000-0  13176-2 0  9992,2 48886  97.5803 211.1360 0007572 235.4044 124.6480 15.24845032 95323,2021-059H,48886,6869.388,94.436,496.454,486.051,0,
GENERATED VIA SPACETRACK.ORG API,18 SPCS,48886,SPACEBEE-102,PAYLOAD,U,21059H,2023/3/17 8:25,30656,15.24857874,0.0007578,97.5803,211.3353,234.7658,125.2871,0,999,9535,0.0012746,0.00031727,0,3863278,0 SPACEBEE-102,1 48886U 21059H   23076.35112304  .00031727  00000-0  12746-2 0  9990,2 48886  97.5803 211.3353 0007578 234.7658 125.2871 15.24857874 95357,2021-059H,48886,6869.349,94.435,496.42,486.009,0,
GENERATED VIA SPACETRACK.ORG API,18 SPCS,48886,SPACEBEE-102,PAYLOAD,U,21059H,2023/3/17 19:27,658976,15.24892368,0.0007592,97.5802,211.8004,233.3658,126.6882,0,999,9542,0.0014134,0.00035243,0,3863544,0 SPACEBEE-102,1 48886U 21059H   23076.81047059  .00035243  00000-0  14134-2 0  9995,2 48886  97.5802 211.8004 0007592 233.3658 126.6882 15.24892368 95427,2021-059H,48886,6869.246,94.433,496.326,485.896,0,
GENERATED VIA SPACETRACK.ORG API,18 SPCS,48886,SPACEBEE-102,PAYLOAD,U,21059H,2023/3/18 14:20,759584,15.24943938,0.0007595,97.5803,212.5977,230.6925,129.3639,0,999,9554,0.0013871,0.00034636,0,3864100,0 SPACEBEE-102,1 48886U 21059H   23077.59790231  .00034636  00000-0  13871-2 0  9990,2 48886  97.5803 212.5977 0007595 230.6925 129.3639 15.24943938 95548,2021-059H,48886,6869.091,94.43,496.173,485.739,0,
GENERATED VIA SPACETRACK.ORG API,18 SPCS,48886,SPACEBEE-102,PAYLOAD,U,21059H,2023/3/18 22:13,573152,15.249652,0.0007593,97.5804,212.93,229.7021,130.3553,0,999,9559,0.0012644,0.00031573,0,3864479,0 SPACEBEE-102,1 48886U 21059H   23077.92599043  .00031573  00000-0  12644-2 0  9999,2 48886  97.5804 212.9300 0007593 229.7021 130.3553 15.24965200 95595,2021-059H,48886,6869.027,94.428,496.108,485.676,0,
GENERATED VIA SPACETRACK.ORG API,18 SPCS,48886,SPACEBEE-102,PAYLOAD,U,21059H,2023/3/19 7:40,154656,15.24994497,0.0007602,97.5805,213.3287,228.4784,131.5802,0,999,9565,0.0013313,0.00033284,0,3865049,0 SPACEBEE-102,1 48886U 21059H   23078.31968929  .00033284  00000-0  13313-2 0  9991,2 48886  97.5805 213.3287 0007602 228.4784 131.5802 15.24994497 95655,2021-059H,48886,6868.939,94.427,496.026,485.582,0,
GENERATED VIA SPACETRACK.ORG API,18 SPCS,48886,SPACEBEE-102,PAYLOAD,U,21059H,2023/3/19 20:16,278944,15.25033679,0.0007574,97.5808,213.8603,226.3293,133.7317,0,999,9573,0.0013474,0.00033729,0,3865245,0 SPACEBEE-102,1 48886U 21059H   23078.84460971  .00033729  00000-0  13474-2 0  9995,2 48886  97.5808 213.8603 0007574 226.3293 133.7317 15.25033679 95736,2021-059H,48886,6868.821,94.424,495.889,485.484,0,
GENERATED VIA SPACETRACK.ORG API,18 SPCS,48886,SPACEBEE-102,PAYLOAD,U,21059H,2023/3/19 21:50,344096,15.25037951,0.0007572,97.5809,213.9268,226.05,134.0114,0,999,9574,0.0013369,0.00033469,0,3865354,0 SPACEBEE-102,1 48886U 21059H   23078.91022389  .00033469  00000-0  13369-2 0  9994,2 48886  97.5809 213.9268 0007572 226.0500 134.0114 15.25037951 95748,2021-059H,48886,6868.808,94.424,495.875,485.472,0,
GENERATED VIA SPACETRACK.ORG API,18 SPCS,48886,SPACEBEE-102,PAYLOAD,U,21059H,2023/3/20 8:52,250656,15.25073449,0.0007551,97.5811,214.3919,224.3567,135.7066,0,999,9581,0.0014245,0.00035715,0,3865912,0 SPACEBEE-102,1 48886U 21059H   23079.36951679  .00035715  00000-0  14245-2 0  9997,2 48886  97.5811 214.3919 0007551 224.3567 135.7066 15.25073449 95814,2021-059H,48886,6868.702,94.422,495.753,485.38,0,
GENERATED VIA SPACETRACK.ORG API,18 SPCS,48886,SPACEBEE-102,PAYLOAD,U,21059H,2023/3/21 6:54,433760,15.25142618,0.0007562,97.5815,215.3221,221.2175,138.8493,0,999,9595,0.0015015,0.00037738,0,3866387,0 SPACEBEE-102,1 48886U 21059H   23080.28807215  .00037738  00000-0  15015-2 0  9999,2 48886  97.5815 215.3221 0007562 221.2175 138.8493 15.25142618 95956,2021-059H,48886,6868.494,94.417,495.553,485.165,0,
GENERATED VIA SPACETRACK.ORG API,18 SPCS,48886,SPACEBEE-102,PAYLOAD,U,21059H,2023/3/21 8:29,91104,15.2514759,0.0007571,97.5815,215.3886,221.0061,139.0608,0,999,9596,0.0014847,0.00037318,0,3866730,0 SPACEBEE-102,1 48886U 21059H   23080.35368161  .00037318  00000-0  14847-2 0  9995,2 48886  97.5815 215.3886 0007571 221.0061 139.0608 15.25147590 95961,2021-059H,48886,6868.479,94.417,495.544,485.144,0,
GENERATED VIA SPACETRACK.ORG API,18 SPCS,48886,SPACEBEE-102,PAYLOAD,U,21059H,2023/3/21 19:30,92032,15.25186081,0.0007582,97.5818,215.8539,219.7971,140.2711,0,999,9603,0.001511,0.00038028,0,3866953,0 SPACEBEE-102,1 48886U 21059H   23080.81294088  .00038028  00000-0  15110-2 0  9995,2 48886  97.5818 215.8539 0007582 219.7971 140.2711 15.25186081 96036,2021-059H,48886,6868.364,94.415,495.436,485.021,0,
GENERATED VIA SPACETRACK.ORG API,18 SPCS,48886,SPACEBEE-102,PAYLOAD,U,21059H,2023/3/22 8:06,770528,15.25223013,0.0007609,97.582,216.3855,218.2726,141.7972,0,999,9611,0.0015265,0.00038464,0,3867494,0 SPACEBEE-102,1 48886U 21059H   23081.33779827  .00038464  00000-0  15265-2 0  9997,2 48886  97.5820 216.3855 0007609 218.2726 141.7972 15.25223013 96119,2021-059H,48886,6868.253,94.412,495.344,484.892,0,
GENERATED VIA SPACETRACK.ORG API,18 SPCS,48886,SPACEBEE-102,PAYLOAD,U,21059H,2023/3/22 20:42,56256,15.25267042,0.0007586,97.5824,216.9173,216.9023,143.1693,0,999,9619,0.0015686,0.00039585,0,3868201,0 SPACEBEE-102,1 48886U 21059H   23081.86263954  .00039585  00000-0  15686-2 0  9996,2 48886  97.5824 216.9173 0007586 216.9023 143.1693 15.25267042 96195,2021-059H,48886,6868.121,94.41,495.196,484.776,0,
